STARLINK-37409          
1 68819U 26089T   26117.59976448 -.00960221  31753-3 -15284-2 0  9992
2 68819  97.2842 322.7591 0001183 113.9071 246.2334 16.03759695   724
