{
  "norad_id": 68819,
  "name": "STARLINK-37409",
  "history": [
    {
      "epoch": "2026-04-27T14:23:39.651072Z",
      "apogee_km": 264.80334094343743,
      "perigee_km": 263.23180717121613,
      "latitude_deg": 5.6331517640478624e-05,
      "longitude_deg": -108.74337681563922,
      "height_km": 267.5409522523321,
      "semi_major_axis_km": 6642.1545740573265,
      "eccentricity": 0.0001183,
      "inclination_deg": 97.2842,
      "raan_deg": 322.7591,
      "arg_perigee_deg": 113.9071,
      "mean_anomaly_deg": 246.2334,
      "mean_motion_rev_day": 16.03759695
    }
  ]
}